{"type": "FeatureCollection", "features": [ {"type": "Feature", "properties": {"norad_id": 30096, "name": "FENGYUN 1C DEB", "group": "fengyun-1c-debris", "lat": -0.5616262162362468, "lon": 82.13202708405025, "alt_km": 845.4770197325752, "timestamp": "2025-12-27T23:26:37.636529+00:00", "meta": {"OBJECT_NAME": "FENGYUN 1C DEB", "OBJECT_ID": "1999-025QZ", "EPOCH": "2025-12-27T04:59:47.626368", "MEAN_MOTION": 14.31717689, "ECCENTRICITY": 0.0079768, "INCLINATION": 99.1464, "RA_OF_ASC_NODE": 81.2321, "ARG_OF_PERICENTER": 190.4189, "MEAN_ANOMALY": 169.5343, "EPHEMERIS_TYPE": 0, "CLASSIFICATION_TYPE": "U", "NORAD_CAT_ID": 30096, "ELEMENT_SET_NO": 999, "REV_AT_EPOCH": 98753, "BSTAR": 0.00036554, "MEAN_MOTION_DOT": 9.62e-06, "MEAN_MOTION_DDOT": 0}, "tle": {"line1": "1 30096U 99025QZ  25361.20819012  .00000962  00000+0  36554-3 0  9995", "line2": "2 30096  99.1464  81.2321 0079768 190.4189 169.5343 14.31717689987539"}}, "geometry": {"type": "Point", "coordinates": [82.13202708405025, -0.5616262162362468]}}, {"type": "Feature", "properties": {"norad_id": 30099, "name": "FENGYUN 1C DEB", "group": "fengyun-1c-debris", "lat": -72.19065864306206, "lon": 101.78044028972877, "alt_km": 809.0652700279279, "timestamp": "2025-12-27T23:26:37.636539+00:00", "meta": {"OBJECT_NAME": "FENGYUN 1C DEB", "OBJECT_ID": "1999-025RC", "EPOCH": "2025-12-27T03:53:43.666944", "MEAN_MOTION": 14.25958927, "ECCENTRICITY": 0.00617705, "INCLINATION": 98.5388, "RA_OF_ASC_NODE": 73.103, "ARG_OF_PERICENTER": 202.244, "MEAN_ANOMALY": 223.8827, "EPHEMERIS_TYPE": 0, "CLASSIFICATION_TYPE": "U", "NORAD_CAT_ID": 30099, "ELEMENT_SET_NO": 999, "REV_AT_EPOCH": 98395, "BSTAR": 0.00034969571, "MEAN_MOTION_DOT": 8.08e-06, "MEAN_MOTION_DDOT": 0}, "tle": {"line1": "1 30099U 99025RC  25361.16231096  .00000808  00000+0  34970-3 0  9992", "line2": "2 30099  98.5388  73.1030 0061770 202.2440 223.8827 14.25958927983951"}}, "geometry": {"type": "Point", "coordinates": [101.78044028972877, -72.19065864306206]}}, {"type": "Feature", "properties": {"norad_id": 30102, "name": "FENGYUN 1C DEB", "group": "fengyun-1c-debris", "lat": -75.16192721155468, "lon": 155.198728528569, "alt_km": 770.5268365878883, "timestamp": "2025-12-27T23:26:37.636549+00:00", "meta": {"OBJECT_NAME": "FENGYUN 1C DEB", "OBJECT_ID": "1999-025RF", "EPOCH": "2025-12-27T00:33:23.172768", "MEAN_MOTION": 14.22151676, "ECCENTRICITY": 0.01409008, "INCLINATION": 98.3791, "RA_OF_ASC_NODE": 8.0956, "ARG_OF_PERICENTER": 318.4004, "MEAN_ANOMALY": 101.0349, "EPHEMERIS_TYPE": 0, "CLASSIFICATION_TYPE": "U", "NORAD_CAT_ID": 30102, "ELEMENT_SET_NO": 999, "REV_AT_EPOCH": 98161, "BSTAR": 0.00033710941, "MEAN_MOTION_DOT": 7.84e-06, "MEAN_MOTION_DDOT": 0}, "tle": {"line1": "1 30102U 99025RF  25361.02318487  .00000784  00000+0  33711-3 0  9997", "line2": "2 30102  98.3791   8.0956 0140900 318.4004 101.0349 14.22151676981615"}}, "geometry": {"type": "Point", "coordinates": [155.198728528569, -75.16192721155468]}}, {"type": "Feature", "properties": {"norad_id": 30103, "name": "FENGYUN 1C DEB", "group": "fengyun-1c-debris", "lat": 48.77229776818904, "lon": -26.455097003564212, "alt_km": 763.2382861173755, "timestamp": "2025-12-27T23:26:37.636559+00:00", "meta": {"OBJECT_NAME": "FENGYUN 1C DEB", "OBJECT_ID": "1999-025RG", "EPOCH": "2025-12-27T11:58:09.488352", "MEAN_MOTION": 14.24889998, "ECCENTRICITY": 0.0064297, "INCLINATION": 99.2464, "RA_OF_ASC_NODE": 343.7551, "ARG_OF_PERICENTER": 78.2852, "MEAN_ANOMALY": 40.6453, "EPHEMERIS_TYPE": 0, "CLASSIFICATION_TYPE": "U", "NORAD_CAT_ID": 30103, "ELEMENT_SET_NO": 999, "REV_AT_EPOCH": 98129, "BSTAR": 0.00052692, "MEAN_MOTION_DOT": 1.209e-05, "MEAN_MOTION_DDOT": 0}, "tle": {"line1": "1 30103U 99025RG  25361.49872093  .00001209  00000+0  52692-3 0  9999", "line2": "2 30103  99.2464 343.7551 0064297  78.2852  40.6453 14.24889998981294"}}, "geometry": {"type": "Point", "coordinates": [-26.455097003564212, 48.77229776818904]}}, {"type": "Feature", "properties": {"norad_id": 30104, "name": "FENGYUN 1C DEB", "group": "fengyun-1c-debris", "lat": -59.28548225106471, "lon": -147.32783983979672, "alt_km": 842.7366854267602, "timestamp": "2025-12-27T23:26:37.636569+00:00", "meta": {"OBJECT_NAME": "FENGYUN 1C DEB", "OBJECT_ID": "1999-025RH", "EPOCH": "2025-12-27T12:13:07.859136", "MEAN_MOTION": 14.25714046, "ECCENTRICITY": 0.0074177, "INCLINATION": 98.3594, "RA_OF_ASC_NODE": 197.8967, "ARG_OF_PERICENTER": 65.1116, "MEAN_ANOMALY": 356.1595, "EPHEMERIS_TYPE": 0, "CLASSIFICATION_TYPE": "U", "NORAD_CAT_ID": 30104, "ELEMENT_SET_NO": 999, "REV_AT_EPOCH": 98103, "BSTAR": 0.00071926, "MEAN_MOTION_DOT": 1.716e-05, "MEAN_MOTION_DDOT": 0}, "tle": {"line1": "1 30104U 99025RH  25361.50911874  .00001716  00000+0  71926-3 0  9997", "line2": "2 30104  98.3594 197.8967 0074177  65.1116 356.1595 14.25714046981030"}}, "geometry": {"type": "Point", "coordinates": [-147.32783983979672, -59.28548225106471]}}, {"type": "Feature", "properties": {"norad_id": 30105, "name": "FENGYUN 1C DEB", "group": "fengyun-1c-debris", "lat": 3.351089601860583, "lon": 168.13376197203283, "alt_km": 941.8324367435753, "timestamp": "2025-12-27T23:26:37.636579+00:00", "meta": {"OBJECT_NAME": "FENGYUN 1C DEB", "OBJECT_ID": "1999-025RJ", "EPOCH": "2025-12-27T10:48:06.566400", "MEAN_MOTION": 14.21430286, "ECCENTRICITY": 0.0199378, "INCLINATION": 98.5948, "RA_OF_ASC_NODE": 347.1132, "ARG_OF_PERICENTER": 31.5051, "MEAN_ANOMALY": 329.7888, "EPHEMERIS_TYPE": 0, "CLASSIFICATION_TYPE": "U", "NORAD_CAT_ID": 30105, "ELEMENT_SET_NO": 999, "REV_AT_EPOCH": 97971, "BSTAR": 0.00051493, "MEAN_MOTION_DOT": 1.332e-05, "MEAN_MOTION_DDOT": 0}, "tle": {"line1": "1 30105U 99025RJ  25361.45007600  .00001332  00000+0  51493-3 0  9996", "line2": "2 30105  98.5948 347.1132 0199378  31.5051 329.7888 14.21430286979716"}}, "geometry": {"type": "Point", "coordinates": [168.13376197203283, 3.351089601860583]}}, {"type": "Feature", "properties": {"norad_id": 30106, "name": "FENGYUN 1C DEB", "group": "fengyun-1c-debris", "lat": 75.49583818769884, "lon": -126.24324066911896, "alt_km": 589.8529685577996, "timestamp": "2025-12-27T23:26:37.636589+00:00", "meta": {"OBJECT_NAME": "FENGYUN 1C DEB", "OBJECT_ID": "1999-025RK", "EPOCH": "2025-12-27T07:30:25.818912", "MEAN_MOTION": 14.86188155, "ECCENTRICITY": 0.0047852, "INCLINATION": 98.9233, "RA_OF_ASC_NODE": 270.4106, "ARG_OF_PERICENTER": 148.6887, "MEAN_ANOMALY": 339.6916, "EPHEMERIS_TYPE": 0, "CLASSIFICATION_TYPE": "U", "NORAD_CAT_ID": 30106, "ELEMENT_SET_NO": 999, "REV_AT_EPOCH": 98761, "BSTAR": 0.0045485, "MEAN_MOTION_DOT": 0.00040925, "MEAN_MOTION_DDOT": 0}, "tle": {"line1": "1 30106U 99025RK  25361.31279883  .00040925  00000+0  45485-2 0  9990", "line2": "2 30106  98.9233 270.4106 0047852 148.6887 339.6916 14.86188155987619"}}, "geometry": {"type": "Point", "coordinates": [-126.24324066911896, 75.49583818769884]}}, {"type": "Feature", "properties": {"norad_id": 30107, "name": "FENGYUN 1C DEB", "group": "fengyun-1c-debris", "lat": 59.92568406267902, "lon": 43.155828458556776, "alt_km": 928.6379287317259, "timestamp": "2025-12-27T23:26:37.636599+00:00", "meta": {"OBJECT_NAME": "FENGYUN 1C DEB", "OBJECT_ID": "1999-025RL", "EPOCH": "2025-12-27T02:46:34.164480", "MEAN_MOTION": 14.14431223, "ECCENTRICITY": 0.01265936, "INCLINATION": 98.8449, "RA_OF_ASC_NODE": 57.9012, "ARG_OF_PERICENTER": 234.4486, "MEAN_ANOMALY": 124.4832, "EPHEMERIS_TYPE": 0, "CLASSIFICATION_TYPE": "U", "NORAD_CAT_ID": 30107, "ELEMENT_SET_NO": 999, "REV_AT_EPOCH": 97764, "BSTAR": 0.00016052867, "MEAN_MOTION_DOT": 2.87e-06, "MEAN_MOTION_DDOT": 0}, "tle": {"line1": "1 30107U 99025RL  25361.11567320  .00000287  00000+0  16053-3 0  9992", "line2": "2 30107  98.8449  57.9012 0126593 234.4486 124.4832 14.14431223977648"}}, "geometry": {"type": "Point", "coordinates": [43.155828458556776, 59.92568406267902]}}, {"type": "Feature", "properties": {"norad_id": 30108, "name": "FENGYUN 1C DEB", "group": "fengyun-1c-debris", "lat": 61.43041982471447, "lon": -176.2975581696763, "alt_km": 934.4984780419527, "timestamp": "2025-12-27T23:26:37.636609+00:00", "meta": {"OBJECT_NAME": "FENGYUN 1C DEB", "OBJECT_ID": "1999-025RM", "EPOCH": "2025-12-27T11:37:07.543776", "MEAN_MOTION": 14.17202988, "ECCENTRICITY": 0.0196809, "INCLINATION": 98.6614, "RA_OF_ASC_NODE": 346.9662, "ARG_OF_PERICENTER": 339.8459, "MEAN_ANOMALY": 143.5799, "EPHEMERIS_TYPE": 0, "CLASSIFICATION_TYPE": "U", "NORAD_CAT_ID": 30108, "ELEMENT_SET_NO": 999, "REV_AT_EPOCH": 97807, "BSTAR": 0.00049795, "MEAN_MOTION_DOT": 1.169e-05, "MEAN_MOTION_DDOT": 0}, "tle": {"line1": "1 30108U 99025RM  25361.48411509  .00001169  00000+0  49795-3 0  9999", "line2": "2 30108  98.6614 346.9662 0196809 339.8459 143.5799 14.17202988978079"}}, "geometry": {"type": "Point", "coordinates": [-176.2975581696763, 61.43041982471447]}}, {"type": "Feature", "properties": {"norad_id": 30109, "name": "FENGYUN 1C DEB", "group": "fengyun-1c-debris", "lat": -67.1098572049179, "lon": 154.08438752776243, "alt_km": 779.4633659403962, "timestamp": "2025-12-27T23:26:37.636619+00:00", "meta": {"OBJECT_NAME": "FENGYUN 1C DEB", "OBJECT_ID": "1999-025RN", "EPOCH": "2025-12-27T12:41:09.628224", "MEAN_MOTION": 14.17571, "ECCENTRICITY": 0.0167881, "INCLINATION": 98.5088, "RA_OF_ASC_NODE": 354.4218, "ARG_OF_PERICENTER": 189.52, "MEAN_ANOMALY": 291.2494, "EPHEMERIS_TYPE": 0, "CLASSIFICATION_TYPE": "U", "NORAD_CAT_ID": 30109, "ELEMENT_SET_NO": 999, "REV_AT_EPOCH": 97761, "BSTAR": 0.00031596, "MEAN_MOTION_DOT": 6.95e-06, "MEAN_MOTION_DDOT": 0}, "tle": {"line1": "1 30109U 99025RN  25361.52858366  .00000695  00000+0  31596-3 0  9994", "line2": "2 30109  98.5088 354.4218 0167881 189.5200 291.2494 14.17571000977613"}}, "geometry": {"type": "Point", "coordinates": [154.08438752776243, -67.1098572049179]}}]}